QZS-1R                  
1 49336U 21096A   23276.86865661 -.00000259  00000+0  00000+0 0  9994
2 49336  35.4144  94.4599 0745222 269.8324  95.5037  1.00282864  7113
